{"type":"FeatureCollection","crs":{"type":"name","properties":{"name":"EPSG:4326"}},"features":[{"type":"Feature","geometry":{"type":"Polygon","coordinates":[[[-97.13303,33.30007],[-97.13153,33.30006],[-97.12822,33.30884],[-97.12653,33.31128],[-97.12591,33.31322],[-97.12614,33.31555],[-97.12599,33.31723],[-97.12476,33.31958],[-97.12486,33.32752],[-97.12459,33.32881],[-97.12403,33.32962],[-97.12163,33.33115],[-97.12111,33.33171],[-97.12047,33.33304],[-97.12036,33.3344],[-97.11527,33.33441],[-97.11524,33.33843],[-97.10637,33.33847],[-97.10641,33.33521],[-97.09562,33.33533],[-97.09567,33.32984],[-97.08949,33.32986],[-97.08956,33.34256],[-97.08747,33.34257],[-97.08733,33.3454],[-97.08629,33.3454],[-97.08631,33.34637],[-97.08455,33.34629],[-97.08453,33.34255],[-97.08011,33.34256],[-97.08011,33.34141],[-97.07223,33.34143],[-97.07225,33.3465],[-97.06428,33.34652],[-97.0643,33.34907],[-97.05478,33.35032],[-97.05485,33.34398],[-97.05722,33.34397],[-97.05725,33.33792],[-97.06423,33.33779],[-97.06424,33.31386],[-97.06388,33.31269],[-97.06246,33.30978],[-97.06235,33.30684],[-97.06024,33.30736],[-97.05712,33.30732],[-97.05765,33.2986],[-97.06373,33.29874],[-97.06413,33.29951],[-97.06377,33.29996],[-97.06403,33.30072],[-97.06534,33.30088],[-97.06541,33.29878],[-97.06485,33.29877],[-97.06495,33.29473],[-97.07305,33.29504],[-97.07347,33.28772],[-97.07891,33.28777],[-97.07894,33.28668],[-97.07825,33.28681],[-97.07821,33.28599],[-97.07598,33.28591],[-97.07614,33.28175],[-97.07548,33.28177],[-97.07316,33.28088],[-97.07157,33.28066],[-97.07115,33.2808],[-97.07087,33.28109],[-97.07085,33.28214],[-97.07071,33.28237],[-97.07005,33.28255],[-97.06936,33.28249],[-97.06905,33.28218],[-97.06903,33.28151],[-97.06868,33.28076],[-97.06875,33.28024],[-97.06927,33.27958],[-97.06921,33.27934],[-97.06879,33.27902],[-97.06825,33.27901],[-97.06635,33.27989],[-97.06562,33.28002],[-97.06506,33.28038],[-97.0646,33.28041],[-97.06353,33.27955],[-97.06271,33.27933],[-97.06081,33.27834],[-97.06079,33.27796],[-97.06127,33.27743],[-97.06106,33.277],[-97.05948,33.27701],[-97.05868,33.27745],[-97.05835,33.27745],[-97.05712,33.27491],[-97.05603,33.27351],[-97.05255,33.27361],[-97.0531,33.27579],[-97.04981,33.2745],[-97.04897,33.27555],[-97.04808,33.2867],[-97.03754,33.28614],[-97.03392,33.28617],[-97.03444,33.28704],[-97.03731,33.28851],[-97.03772,33.28917],[-97.03769,33.28964],[-97.03729,33.29008],[-97.0355,33.2904],[-97.03497,33.29076],[-97.03485,33.29132],[-97.03587,33.29378],[-97.03683,33.29425],[-97.03738,33.29511],[-97.03863,33.296],[-97.03857,33.29624],[-97.03757,33.29712],[-97.03767,33.29743],[-97.03979,33.29928],[-97.04242,33.29887],[-97.04294,33.29893],[-97.04315,33.29916],[-97.04308,33.29975],[-97.04205,33.30145],[-97.04258,33.3027],[-97.04263,33.30364],[-97.04092,33.30547],[-97.04096,33.30595],[-97.04182,33.3069],[-97.04175,33.30722],[-97.04065,33.30858],[-97.04086,33.31041],[-97.04065,33.311],[-97.04,33.31157],[-97.03893,33.31197],[-97.03725,33.31309],[-97.03392,33.31494],[-97.03366,33.31528],[-97.03364,33.31584],[-97.03386,33.31742],[-97.03337,33.31803],[-97.0311,33.31768],[-97.03055,33.31781],[-97.0294,33.31865],[-97.02756,33.31892],[-97.02657,33.31944],[-97.02621,33.31999],[-97.02625,33.32057],[-97.0267,33.32203],[-97.02757,33.32335],[-97.02761,33.32386],[-97.02702,33.32461],[-97.02554,33.32469],[-97.02498,33.32488],[-97.0247,33.32522],[-97.02474,33.32609],[-97.02512,33.32639],[-97.02647,33.32651],[-97.02747,33.32594],[-97.02799,33.32599],[-97.0285,33.32632],[-97.02843,33.32793],[-97.02796,33.32849],[-97.02674,33.3287],[-97.02642,33.32948],[-97.02647,33.32984],[-97.02708,33.3307],[-97.02939,33.33198],[-97.02984,33.33254],[-97.02981,33.33464],[-97.03052,33.33624],[-97.03103,33.33876],[-97.03065,33.33964],[-97.0296,33.34073],[-97.02954,33.34121],[-97.03013,33.34323],[-97.03086,33.34539],[-97.03121,33.3454],[-97.03147,33.34643],[-97.03281,33.34872],[-97.03405,33.35173],[-97.03457,33.35264],[-97.03554,33.35231],[-97.03793,33.35738],[-97.03502,33.35813],[-97.03251,33.35335],[-97.03397,33.3528],[-97.03206,33.34864],[-97.03094,33.34676],[-97.02921,33.34125],[-97.0293,33.34063],[-97.03037,33.33949],[-97.0307,33.33875],[-97.0302,33.33631],[-97.02949,33.3347],[-97.02952,33.33259],[-97.02917,33.33218],[-97.02686,33.3309],[-97.02615,33.3299],[-97.02622,33.32894],[-97.0265,33.32851],[-97.02679,33.32831],[-97.0278,33.32823],[-97.02813,33.32782],[-97.02819,33.32644],[-97.02749,33.32622],[-97.02656,33.32678],[-97.025,33.32664],[-97.02445,33.32623],[-97.02429,33.32568],[-97.02439,33.32512],[-97.02477,33.32466],[-97.02549,33.32442],[-97.02686,33.32436],[-97.02728,33.32381],[-97.02726,33.32344],[-97.02639,33.32211],[-97.02593,33.32062],[-97.02588,33.31994],[-97.02633,33.31925],[-97.02744,33.31866],[-97.02927,33.31839],[-97.03039,33.31756],[-97.03104,33.31741],[-97.03321,33.31778],[-97.03353,33.31737],[-97.03334,33.31523],[-97.03367,33.31476],[-97.03707,33.31286],[-97.03875,33.31174],[-97.03981,33.31135],[-97.04037,33.31086],[-97.04053,33.31041],[-97.04032,33.30852],[-97.04149,33.30692],[-97.04073,33.30607],[-97.04066,33.30541],[-97.0408,33.30509],[-97.04237,33.30358],[-97.04232,33.30275],[-97.04179,33.3014],[-97.04284,33.29963],[-97.0429,33.29923],[-97.04253,33.29913],[-97.03975,33.29954],[-97.03744,33.29754],[-97.03728,33.29721],[-97.03735,33.29696],[-97.03836,33.29607],[-97.0372,33.29529],[-97.03667,33.29444],[-97.03565,33.29392],[-97.03459,33.29133],[-97.03489,33.29044],[-97.03545,33.29013],[-97.03716,33.28983],[-97.03744,33.28952],[-97.03746,33.28921],[-97.03714,33.2887],[-97.03428,33.28724],[-97.03384,33.28671],[-97.03356,33.28566],[-97.03473,33.28568],[-97.03522,33.28522],[-97.03602,33.28479],[-97.0377,33.28257],[-97.03816,33.28217],[-97.03876,33.28218],[-97.04034,33.28332],[-97.0408,33.28336],[-97.04117,33.28318],[-97.04203,33.28223],[-97.04272,33.28004],[-97.0425,33.2792],[-97.04178,33.27856],[-97.04194,33.27823],[-97.0425,33.27798],[-97.04349,33.27847],[-97.04378,33.27884],[-97.04446,33.27888],[-97.04499,33.27833],[-97.04499,33.27748],[-97.04477,33.27639],[-97.04499,33.27565],[-97.04536,33.27518],[-97.0458,33.2751],[-97.04645,33.27573],[-97.04713,33.276],[-97.04735,33.26817],[-97.04572,33.26834],[-97.03398,33.26779],[-97.03409,33.25938],[-97.02697,33.25925],[-97.02862,33.25815],[-97.04145,33.25173],[-97.0428,33.25121],[-97.04424,33.25088],[-97.0496,33.25029],[-97.0484,33.25218],[-97.05048,33.25343],[-97.05277,33.25578],[-97.0533,33.25608],[-97.05534,33.25625],[-97.0559,33.25609],[-97.0582,33.25662],[-97.05819,33.25468],[-97.06109,33.25473],[-97.06141,33.25159],[-97.07302,33.25192],[-97.07292,33.2515],[-97.0733,33.245],[-97.08134,33.24536],[-97.08139,33.24456],[-97.0817,33.24355],[-97.08185,33.24094],[-97.08249,33.24055],[-97.08258,33.23866],[-97.09664,33.23426],[-97.09888,33.23513],[-97.09889,33.23528],[-97.10064,33.23576],[-97.10267,33.23608],[-97.10523,33.23608],[-97.10773,33.23566],[-97.11757,33.2328],[-97.11757,33.23265],[-97.11795,33.23254],[-97.12388,33.23093],[-97.1261,33.23065],[-97.13679,33.23083],[-97.13866,33.23062],[-97.14126,33.23002],[-97.14117,33.23477],[-97.14151,33.23477],[-97.14147,33.23623],[-97.13687,33.23615],[-97.13697,33.23361],[-97.1346,33.23351],[-97.13434,33.24087],[-97.13417,33.24112],[-97.13353,33.24054],[-97.13291,33.24069],[-97.1319,33.24067],[-97.13166,33.25419],[-97.13755,33.25427],[-97.13861,33.25402],[-97.14138,33.25407],[-97.14127,33.25701],[-97.14148,33.25701],[-97.14142,33.25861],[-97.13996,33.25902],[-97.13697,33.25973],[-97.13494,33.25989],[-97.13146,33.2598],[-97.13123,33.27563],[-97.1317,33.29814],[-97.13315,33.29817],[-97.13303,33.30007]]]},"properties":{"districtid":"4","name":"District 4"}},{"type":"Feature","geometry":{"type":"Polygon","coordinates":[[[-97.17074,33.21921],[-97.17377,33.22779],[-97.1769,33.23984],[-97.17937,33.23985],[-97.17937,33.2431],[-97.18111,33.24309],[-97.1812,33.24645],[-97.20852,33.24667],[-97.20836,33.25679],[-97.20698,33.2568],[-97.2069,33.2603],[-97.20448,33.26035],[-97.19298,33.25992],[-97.1987,33.27154],[-97.20598,33.28373],[-97.17886,33.28336],[-97.17847,33.30314],[-97.17884,33.3064],[-97.18078,33.31737],[-97.18129,33.32402],[-97.18635,33.32354],[-97.1868,33.32695],[-97.18146,33.32742],[-97.18186,33.33402],[-97.18023,33.33401],[-97.1794,33.31954],[-97.1791,33.31691],[-97.177,33.30506],[-97.17683,33.30251],[-97.17688,33.29878],[-97.1745,33.29875],[-97.17454,33.29657],[-97.17268,33.29655],[-97.17265,33.29873],[-97.17016,33.2987],[-97.17022,33.29596],[-97.1683,33.29598],[-97.16833,33.29778],[-97.16855,33.29867],[-97.16321,33.29862],[-97.16002,33.29832],[-97.1317,33.29814],[-97.13123,33.27563],[-97.13146,33.2598],[-97.13494,33.25989],[-97.13697,33.25973],[-97.14142,33.25861],[-97.14148,33.25701],[-97.14127,33.25701],[-97.14138,33.25407],[-97.13861,33.25402],[-97.13755,33.25427],[-97.13166,33.25419],[-97.1319,33.24067],[-97.13291,33.24069],[-97.13353,33.24054],[-97.13417,33.24112],[-97.13434,33.24087],[-97.1346,33.23351],[-97.13697,33.23361],[-97.13687,33.23615],[-97.14147,33.23623],[-97.14151,33.23477],[-97.14117,33.23477],[-97.14126,33.23002],[-97.14313,33.22955],[-97.14339,33.22142],[-97.15696,33.22171],[-97.15703,33.21887],[-97.17074,33.21921]]]},"properties":{"districtid":"5","name":"District 5"}},{"type":"Feature","geometry":{"type":"Polygon","coordinates":[[[-97.02144,33.25149],[-97.02102,33.24781],[-97.0215,33.24686],[-97.02312,33.24684],[-97.02335,33.24006],[-97.02384,33.2384],[-97.02409,33.23652],[-97.0291,33.23672],[-97.02853,33.23543],[-97.02892,33.23519],[-97.02943,33.23567],[-97.02945,33.23496],[-97.03022,33.23486],[-97.03034,33.23462],[-97.03066,33.23457],[-97.03107,33.23537],[-97.03109,33.23578],[-97.03223,33.23588],[-97.0331,33.23565],[-97.03322,33.23557],[-97.03327,33.23471],[-97.0324,33.23365],[-97.03238,33.23329],[-97.03343,33.23205],[-97.03397,33.23217],[-97.0341,33.23239],[-97.03439,33.23246],[-97.03494,33.23222],[-97.03573,33.23236],[-97.03621,33.23292],[-97.03678,33.23423],[-97.03723,33.23456],[-97.03723,33.23489],[-97.03805,33.23476],[-97.03902,33.23508],[-97.04021,33.23486],[-97.04078,33.23411],[-97.04076,33.23376],[-97.04101,33.23354],[-97.04172,33.23128],[-97.04267,33.23053],[-97.04335,33.23044],[-97.04394,33.23013],[-97.04439,33.22938],[-97.04473,33.22837],[-97.04478,33.22706],[-97.04453,33.22596],[-97.04395,33.22548],[-97.043,33.22358],[-97.04212,33.22119],[-97.04194,33.21852],[-97.0422,33.21696],[-97.04246,33.21646],[-97.04271,33.21631],[-97.04249,33.21561],[-97.04134,33.21498],[-97.0394,33.21448],[-97.03922,33.21454],[-97.03922,33.21479],[-97.03758,33.21498],[-97.0367,33.21479],[-97.0358,33.21428],[-97.03567,33.2131],[-97.03603,33.21211],[-97.03597,33.20939],[-97.03541,33.20884],[-97.03405,33.20845],[-97.034,33.20806],[-97.035,33.20802],[-97.03503,33.20784],[-97.03477,33.20765],[-97.03393,33.20767],[-97.03413,33.2071],[-97.03409,33.2066],[-97.03354,33.20534],[-97.03287,33.20483],[-97.0326,33.20381],[-97.03211,33.20379],[-97.03201,33.20401],[-97.03142,33.20383],[-97.03102,33.20324],[-97.0302,33.20301],[-97.03022,33.20247],[-97.02909,33.20236],[-97.02763,33.20148],[-97.02647,33.20131],[-97.02417,33.20059],[-97.02422,33.20033],[-97.02432,33.20021],[-97.0264,33.20019],[-97.02872,33.19872],[-97.02963,33.19839],[-97.03074,33.19857],[-97.03131,33.19884],[-97.03236,33.19975],[-97.03268,33.2009],[-97.03384,33.20245],[-97.03458,33.20316],[-97.0346,33.20431],[-97.03591,33.20638],[-97.03883,33.20785],[-97.03891,33.20814],[-97.03806,33.21006],[-97.03816,33.21092],[-97.03795,33.21181],[-97.03835,33.21219],[-97.04005,33.21274],[-97.0412,33.21271],[-97.04247,33.21223],[-97.04402,33.21226],[-97.04458,33.21241],[-97.04673,33.21359],[-97.0479,33.21333],[-97.04818,33.21261],[-97.04837,33.21048],[-97.04775,33.20871],[-97.0468,33.20779],[-97.04629,33.20666],[-97.04638,33.20595],[-97.04707,33.20544],[-97.04712,33.20408],[-97.0468,33.20364],[-97.04569,33.20287],[-97.04536,33.20241],[-97.0451,33.20139],[-97.04491,33.19873],[-97.04449,33.19804],[-97.04425,33.19595],[-97.04375,33.19472],[-97.04385,33.19388],[-97.04439,33.19233],[-97.04413,33.19117],[-97.04309,33.18931],[-97.04267,33.18878],[-97.04193,33.18827],[-97.04139,33.18747],[-97.03945,33.18699],[-97.0385,33.18726],[-97.03665,33.18695],[-97.03282,33.1858],[-97.03253,33.18549],[-97.03234,33.18412],[-97.03277,33.18384],[-97.0331,33.18315],[-97.03482,33.18216],[-97.03552,33.18195],[-97.0372,33.18204],[-97.03825,33.18185],[-97.0388,33.18196],[-97.03891,33.18215],[-97.03869,33.18209],[-97.03855,33.18239],[-97.03873,33.18261],[-97.03943,33.18261],[-97.0407,33.1833],[-97.04142,33.18437],[-97.04159,33.18428],[-97.0415,33.18372],[-97.04166,33.18306],[-97.04265,33.18181],[-97.04355,33.18148],[-97.04554,33.18129],[-97.04479,33.18107],[-97.04247,33.18134],[-97.04221,33.18109],[-97.04232,33.18093],[-97.04271,33.18069],[-97.04505,33.18028],[-97.04683,33.18028],[-97.04759,33.1805],[-97.04706,33.18],[-97.04735,33.17973],[-97.04706,33.17984],[-97.0466,33.17963],[-97.04671,33.17688],[-97.05384,33.17718],[-97.05359,33.17776],[-97.05174,33.17887],[-97.0511,33.17969],[-97.0525,33.18119],[-97.05371,33.18203],[-97.0545,33.18194],[-97.05454,33.18178],[-97.05553,33.18197],[-97.05661,33.18474],[-97.05695,33.18464],[-97.05666,33.18515],[-97.0576,33.18512],[-97.05931,33.18458],[-97.06178,33.1871],[-97.0634,33.18605],[-97.06525,33.18608],[-97.06569,33.18698],[-97.06612,33.18699],[-97.06597,33.18969],[-97.06742,33.18958],[-97.06797,33.19137],[-97.06875,33.19138],[-97.06918,33.19218],[-97.06943,33.19209],[-97.06946,33.19166],[-97.07125,33.19172],[-97.07096,33.19228],[-97.07165,33.19251],[-97.07167,33.1929],[-97.07135,33.19322],[-97.07132,33.19346],[-97.0708,33.19389],[-97.0709,33.19408],[-97.07056,33.19467],[-97.07017,33.19493],[-97.07023,33.19557],[-97.07117,33.19626],[-97.07171,33.19623],[-97.07205,33.19646],[-97.07243,33.19756],[-97.07313,33.19768],[-97.07365,33.19805],[-97.07556,33.19753],[-97.07587,33.19788],[-97.07624,33.19789],[-97.07693,33.19875],[-97.07683,33.19918],[-97.07713,33.19959],[-97.07728,33.20017],[-97.07719,33.20107],[-97.07826,33.20165],[-97.07969,33.2017],[-97.07964,33.20229],[-97.08435,33.2025],[-97.08424,33.20476],[-97.09229,33.20474],[-97.09319,33.20452],[-97.09502,33.20372],[-97.09888,33.20331],[-97.10029,33.20355],[-97.10204,33.20461],[-97.10273,33.20476],[-97.1039,33.20469],[-97.10715,33.20425],[-97.10763,33.20399],[-97.11,33.20161],[-97.11064,33.2014],[-97.1123,33.2014],[-97.11212,33.20504],[-97.11501,33.20602],[-97.11663,33.2063],[-97.11657,33.20801],[-97.11726,33.20804],[-97.11713,33.21421],[-97.11753,33.21436],[-97.11749,33.216],[-97.11789,33.21601],[-97.1178,33.22035],[-97.11252,33.22037],[-97.11228,33.22117],[-97.1124,33.22135],[-97.11359,33.22135],[-97.11358,33.22539],[-97.11511,33.22542],[-97.11518,33.22739],[-97.11223,33.2291],[-97.10672,33.23088],[-97.10691,33.23185],[-97.10618,33.23294],[-97.10606,33.23349],[-97.10676,33.23545],[-97.10677,33.23586],[-97.1044,33.23612],[-97.10182,33.23598],[-97.09907,33.23534],[-97.09887,33.23527],[-97.09888,33.23513],[-97.09664,33.23426],[-97.08258,33.23866],[-97.08249,33.24055],[-97.08185,33.24094],[-97.0817,33.24355],[-97.08139,33.24456],[-97.08134,33.24536],[-97.0733,33.245],[-97.07292,33.2515],[-97.07302,33.25192],[-97.06141,33.25159],[-97.06109,33.25473],[-97.05819,33.25468],[-97.0582,33.25662],[-97.0559,33.25609],[-97.05534,33.25625],[-97.0533,33.25608],[-97.05277,33.25578],[-97.05048,33.25343],[-97.0484,33.25218],[-97.0496,33.25031],[-97.04402,33.25093],[-97.04211,33.25144],[-97.04055,33.25216],[-97.02921,33.25781],[-97.02697,33.25925],[-97.02093,33.25913],[-97.02144,33.25149]]]},"properties":{"districtid":"2","name":"District 2"}},{"type":"Feature","geometry":{"type":"Polygon","coordinates":[[[-97.10672,33.23088],[-97.11223,33.2291],[-97.11518,33.22739],[-97.11511,33.22542],[-97.11358,33.22539],[-97.11359,33.22135],[-97.11233,33.22133],[-97.11252,33.22037],[-97.1178,33.22035],[-97.11789,33.21601],[-97.11749,33.216],[-97.11753,33.21436],[-97.11713,33.21421],[-97.11726,33.20804],[-97.11657,33.20801],[-97.11663,33.2063],[-97.11501,33.20602],[-97.11212,33.20504],[-97.1123,33.20146],[-97.11366,33.20163],[-97.11516,33.20212],[-97.11563,33.20193],[-97.1161,33.20137],[-97.11245,33.19952],[-97.11251,33.19839],[-97.11206,33.19764],[-97.11209,33.19662],[-97.11239,33.19597],[-97.11331,33.19613],[-97.11432,33.19597],[-97.11874,33.19614],[-97.11942,33.19592],[-97.1196,33.19577],[-97.11592,33.19286],[-97.11663,33.1925],[-97.12208,33.19341],[-97.12409,33.19408],[-97.12495,33.19411],[-97.12771,33.19466],[-97.12912,33.19509],[-97.13397,33.19612],[-97.13929,33.19689],[-97.13613,33.2023],[-97.13583,33.20317],[-97.13577,33.20392],[-97.13661,33.20589],[-97.1368,33.20749],[-97.13725,33.20915],[-97.13729,33.21255],[-97.14431,33.21263],[-97.14422,33.21568],[-97.14352,33.21568],[-97.14313,33.22955],[-97.1394,33.23047],[-97.13691,33.23082],[-97.1261,33.23065],[-97.12388,33.23093],[-97.10677,33.23586],[-97.10676,33.23545],[-97.10606,33.23349],[-97.10618,33.23294],[-97.10691,33.23185],[-97.10672,33.23088]]]},"properties":{"districtid":"1","name":"District 1"}},{"type":"Feature","geometry":{"type":"Polygon","coordinates":[[[-97.17285,33.18625],[-97.16942,33.19216],[-97.16463,33.20269],[-97.16439,33.20538],[-97.16485,33.20824],[-97.16919,33.21524],[-97.17077,33.21921],[-97.15703,33.21887],[-97.15696,33.22171],[-97.14339,33.22142],[-97.14352,33.21568],[-97.14422,33.21568],[-97.14431,33.21263],[-97.13729,33.21255],[-97.13725,33.20915],[-97.1368,33.20749],[-97.13661,33.20589],[-97.13582,33.20419],[-97.13583,33.20317],[-97.13613,33.2023],[-97.13929,33.19689],[-97.13397,33.19612],[-97.12912,33.19509],[-97.12771,33.19466],[-97.12495,33.19411],[-97.12409,33.19408],[-97.12441,33.18994],[-97.12785,33.18994],[-97.12904,33.19033],[-97.12918,33.18089],[-97.13923,33.18105],[-97.13996,33.17946],[-97.14144,33.17761],[-97.14996,33.17031],[-97.15218,33.17337],[-97.15317,33.17547],[-97.15362,33.1769],[-97.15494,33.18328],[-97.15902,33.18376],[-97.16331,33.18376],[-97.16313,33.18387],[-97.16257,33.18687],[-97.17031,33.18687],[-97.17203,33.18587],[-97.17245,33.18588],[-97.17285,33.18625]]]},"properties":{"districtid":"3","name":"District 3"}},{"type":"Feature","geometry":{"type":"Polygon","coordinates":[[[-97.20557,33.19966],[-97.20569,33.19465],[-97.2004,33.19453],[-97.20046,33.19202],[-97.19992,33.19201],[-97.19995,33.19011],[-97.2005,33.18735],[-97.18802,33.18151],[-97.17783,33.17785],[-97.17285,33.18625],[-97.17245,33.18588],[-97.17203,33.18587],[-97.17049,33.18684],[-97.16257,33.18687],[-97.16313,33.18387],[-97.16331,33.18376],[-97.15902,33.18376],[-97.15494,33.18328],[-97.15362,33.1769],[-97.15317,33.17547],[-97.15218,33.17337],[-97.14996,33.17031],[-97.1465,33.17326],[-97.14575,33.17264],[-97.14595,33.17235],[-97.14597,33.17182],[-97.14356,33.17182],[-97.14356,33.1722],[-97.1419,33.17219],[-97.142,33.15905],[-97.14367,33.15907],[-97.14367,33.15879],[-97.14369,33.15754],[-97.142,33.15752],[-97.14191,33.153],[-97.14205,33.1489],[-97.14231,33.14833],[-97.14281,33.14788],[-97.14425,33.14704],[-97.16232,33.14722],[-97.16235,33.14502],[-97.16289,33.14503],[-97.16308,33.14139],[-97.1678,33.14154],[-97.16782,33.13871],[-97.17361,33.13784],[-97.17645,33.13341],[-97.17882,33.13342],[-97.17927,33.13284],[-97.19428,33.13306],[-97.19432,33.13091],[-97.25897,33.13159],[-97.25887,33.14155],[-97.26647,33.14166],[-97.26644,33.15386],[-97.24826,33.1537],[-97.24816,33.16778],[-97.24924,33.16779],[-97.24904,33.17682],[-97.23634,33.17674],[-97.23644,33.16768],[-97.22951,33.16761],[-97.22994,33.16765],[-97.22947,33.1693],[-97.22914,33.20003],[-97.20557,33.19966]]]},"properties":{"districtid":"7","name":"District 7"}},{"type":"Feature","geometry":{"type":"Polygon","coordinates":[[[-97.09604,33.14305],[-97.09614,33.1371],[-97.09625,33.13717],[-97.09643,33.13234],[-97.09644,33.13141],[-97.09616,33.13143],[-97.09652,33.12055],[-97.1032,33.12977],[-97.10357,33.13009],[-97.10618,33.13162],[-97.11332,33.13466],[-97.11548,33.13625],[-97.11873,33.13975],[-97.12168,33.13973],[-97.1236,33.14217],[-97.12342,33.14706],[-97.13492,33.14711],[-97.13517,33.14717],[-97.13537,33.14752],[-97.13545,33.14664],[-97.1411,33.14667],[-97.14131,33.14671],[-97.14154,33.14711],[-97.14424,33.14705],[-97.14262,33.14801],[-97.14205,33.1489],[-97.1419,33.15308],[-97.142,33.15752],[-97.14369,33.15754],[-97.14367,33.15907],[-97.142,33.15905],[-97.1419,33.17219],[-97.14356,33.1722],[-97.14356,33.17182],[-97.14597,33.17182],[-97.14595,33.17235],[-97.14575,33.17264],[-97.1465,33.17326],[-97.14096,33.17811],[-97.13996,33.17946],[-97.13923,33.18105],[-97.12918,33.18089],[-97.12904,33.19033],[-97.12785,33.18994],[-97.12441,33.18994],[-97.12417,33.19356],[-97.11687,33.19205],[-97.11467,33.19125],[-97.11363,33.1907],[-97.11166,33.18936],[-97.10794,33.18647],[-97.1083,33.18615],[-97.10457,33.18342],[-97.10453,33.17825],[-97.10122,33.17824],[-97.10149,33.16188],[-97.09271,33.1626],[-97.09335,33.1606],[-97.09336,33.15828],[-97.09319,33.15828],[-97.09317,33.15746],[-97.09341,33.15626],[-97.09481,33.15403],[-97.09689,33.15168],[-97.09738,33.15049],[-97.09714,33.14557],[-97.09687,33.14463],[-97.09604,33.14305]]]},"properties":{"districtid":"6","name":"District 6"}},{"type":"Feature","geometry":{"type":"Polygon","coordinates":[[[-97.06609,33.18762],[-97.06612,33.18699],[-97.06569,33.18698],[-97.06525,33.18608],[-97.0634,33.18605],[-97.06178,33.1871],[-97.05931,33.18458],[-97.0576,33.18512],[-97.05666,33.18515],[-97.05695,33.18464],[-97.05661,33.18474],[-97.05553,33.18197],[-97.05454,33.18178],[-97.0545,33.18194],[-97.05371,33.18203],[-97.0525,33.18119],[-97.0511,33.17969],[-97.05174,33.17887],[-97.05359,33.17776],[-97.05384,33.17718],[-97.05634,33.1773],[-97.05677,33.17021],[-97.06517,33.17051],[-97.06533,33.17026],[-97.06572,33.16455],[-97.06534,33.16367],[-97.06461,33.16304],[-97.08683,33.16379],[-97.08688,33.16307],[-97.08897,33.1629],[-97.08888,33.16255],[-97.08991,33.1623],[-97.08882,33.15951],[-97.08851,33.1591],[-97.08922,33.15866],[-97.08927,33.15821],[-97.09197,33.15826],[-97.092,33.15412],[-97.09068,33.15422],[-97.09029,33.15208],[-97.09098,33.15159],[-97.09111,33.15066],[-97.09094,33.1489],[-97.09099,33.14695],[-97.09258,33.14698],[-97.09292,33.14581],[-97.09321,33.14561],[-97.09326,33.14535],[-97.09317,33.14476],[-97.09101,33.14461],[-97.09102,33.14406],[-97.09277,33.14422],[-97.0934,33.14369],[-97.09345,33.14304],[-97.09604,33.14305],[-97.09687,33.14463],[-97.09714,33.14557],[-97.09738,33.15049],[-97.09689,33.15168],[-97.09481,33.15403],[-97.09341,33.15626],[-97.09317,33.15746],[-97.09319,33.15828],[-97.09336,33.15828],[-97.09335,33.1606],[-97.09271,33.1626],[-97.10149,33.16188],[-97.10122,33.17824],[-97.10453,33.17825],[-97.10457,33.18342],[-97.1083,33.18615],[-97.10794,33.18647],[-97.11256,33.19002],[-97.11467,33.19125],[-97.1166,33.19198],[-97.12417,33.19356],[-97.12409,33.19408],[-97.12208,33.19341],[-97.1164,33.19252],[-97.11592,33.19286],[-97.1196,33.19577],[-97.11926,33.19603],[-97.11874,33.19614],[-97.11432,33.19597],[-97.11331,33.19613],[-97.11239,33.19597],[-97.11209,33.19662],[-97.11206,33.19764],[-97.11251,33.19839],[-97.11245,33.19952],[-97.1161,33.20137],[-97.11542,33.20206],[-97.11489,33.20212],[-97.11366,33.20163],[-97.1123,33.2014],[-97.11064,33.2014],[-97.10976,33.20177],[-97.10741,33.20413],[-97.10687,33.20432],[-97.10337,33.20474],[-97.10204,33.20461],[-97.10029,33.20355],[-97.09922,33.20331],[-97.09541,33.20364],[-97.09229,33.20474],[-97.08424,33.20476],[-97.08435,33.2025],[-97.07964,33.20229],[-97.07969,33.2017],[-97.07826,33.20165],[-97.07719,33.20107],[-97.07728,33.20017],[-97.07713,33.19959],[-97.07683,33.19918],[-97.07693,33.19875],[-97.07624,33.19789],[-97.07587,33.19788],[-97.07556,33.19753],[-97.07365,33.19805],[-97.07313,33.19768],[-97.07243,33.19756],[-97.07205,33.19646],[-97.07171,33.19623],[-97.07117,33.19626],[-97.07023,33.19557],[-97.07017,33.19493],[-97.07056,33.19467],[-97.0709,33.19408],[-97.0708,33.19389],[-97.07132,33.19346],[-97.07135,33.19322],[-97.07167,33.1929],[-97.07165,33.19251],[-97.07096,33.19228],[-97.07125,33.19172],[-97.06946,33.19166],[-97.06932,33.19223],[-97.06875,33.19138],[-97.06797,33.19137],[-97.06742,33.18958],[-97.06597,33.18969],[-97.06609,33.18762]]]},"properties":{"districtid":"8","name":"District 8"}},{"type":"Feature","geometry":{"type":"Polygon","coordinates":[[[-97.1769,33.23984],[-97.17429,33.22934],[-97.17162,33.22148],[-97.16919,33.21524],[-97.16485,33.20824],[-97.16439,33.20538],[-97.16463,33.20269],[-97.16942,33.19216],[-97.17783,33.17785],[-97.18802,33.18151],[-97.20051,33.18737],[-97.19996,33.19012],[-97.19992,33.19203],[-97.20046,33.19203],[-97.20042,33.19454],[-97.2057,33.19466],[-97.20557,33.19967],[-97.22914,33.20004],[-97.23091,33.20025],[-97.231,33.20165],[-97.23141,33.20239],[-97.23177,33.20363],[-97.23122,33.22153],[-97.22959,33.22152],[-97.22954,33.22586],[-97.23434,33.2259],[-97.23438,33.22175],[-97.2453,33.22178],[-97.25111,33.22287],[-97.2511,33.22375],[-97.25612,33.22386],[-97.253,33.22858],[-97.24422,33.2285],[-97.24413,33.22959],[-97.2435,33.22956],[-97.24345,33.23418],[-97.23352,33.23311],[-97.23329,33.23454],[-97.21039,33.2328],[-97.21033,33.23525],[-97.20874,33.23529],[-97.20853,33.24667],[-97.1812,33.24645],[-97.18111,33.24309],[-97.17937,33.2431],[-97.17937,33.23985],[-97.1769,33.23984]]]},"properties":{"districtid":"9","name":"District 9"}}]}